start=new Date('2021-09-28T00:00:00.000Z').valueOf();
sats=[{"RCS_SIZE":"LARGE","INCLINATION":"53.0530","OBJECT_ID":"2021-021BE","ELEMENT_SET_NO":"999","PERIOD":"95.598","COUNTRY_CODE":"US","CENTER_NAME":"EARTH","FILE":"3131463","MEAN_MOTION_DDOT":"0.0000000000000","REV_AT_EPOCH":"3126","MEAN_ANOMALY":"247.4486","GP_ID":"185667273","OBJECT_TYPE":"PAYLOAD","TLE_LINE1":"1 47912U 21021BE  21270.71098854  .00022026  00000-0  14969-2 0  9996","RA_OF_ASC_NODE":"1.9512","SITE":"AFETR","PERIAPSIS":"546.403","CLASSIFICATION_TYPE":"U","APOAPSIS":"548.623","ARG_OF_PERICENTER":"112.6673","LAUNCH_DATE":"2021-03-14","SEMIMAJOR_AXIS":"6925.648","EPOCH":"2021-09-27T17:03:49.409856","TLE_LINE2":"2 47912  53.0530   1.9512 0001603 112.6673 247.4486 15.06302207 31268","MEAN_ELEMENT_THEORY":"SGP4","BSTAR":"0.00149690000000","MEAN_MOTION_DOT":"0.00022026","OBJECT_NAME":"STARLINK-2372","ECCENTRICITY":"0.00016030","DECAY_DATE":null,"TIME_SYSTEM":"UTC","EPHEMERIS_TYPE":"0","REF_FRAME":"TEME","NORAD_CAT_ID":"47912","MEAN_MOTION":"15.06302207"},{"TLE_LINE1":"1 47913U 21021BF  21270.73859347  .00000904  00000-0  79576-4 0  9999","RA_OF_ASC_NODE":"11.8118","OBJECT_TYPE":"PAYLOAD","SITE":"AFETR","CLASSIFICATION_TYPE":"U","PERIAPSIS":"546.326","APOAPSIS":"548.102","GP_ID":"185668023","CENTER_NAME":"EARTH","FILE":"3131463","MEAN_MOTION_DDOT":"0.0000000000000","MEAN_ANOMALY":"245.8386","REV_AT_EPOCH":"3129","RCS_SIZE":"LARGE","INCLINATION":"53.0586","ELEMENT_SET_NO":"999","OBJECT_ID":"2021-021BF","PERIOD":"95.592","COUNTRY_CODE":"US","REF_FRAME":"TEME","NORAD_CAT_ID":"47913","MEAN_MOTION":"15.06399905","MEAN_MOTION_DOT":"0.00000904","OBJECT_NAME":"STARLINK-2374","DECAY_DATE":null,"TIME_SYSTEM":"UTC","ECCENTRICITY":"0.00012820","EPHEMERIS_TYPE":"0","SEMIMAJOR_AXIS":"6925.349","EPOCH":"2021-09-27T17:43:34.475808","TLE_LINE2":"2 47913  53.0586  11.8118 0001282 114.2737 245.8386 15.06399905 31299","BSTAR":"0.00007957600000","MEAN_ELEMENT_THEORY":"SGP4","ARG_OF_PERICENTER":"114.2737","LAUNCH_DATE":"2021-03-14"},{"TLE_LINE2":"2 47914  53.0582  12.1192 0001394 108.4003 251.7137 15.06397194 31273","MEAN_ELEMENT_THEORY":"SGP4","BSTAR":"0.00010871000000","SEMIMAJOR_AXIS":"6925.357","EPOCH":"2021-09-27T16:04:04.363680","ARG_OF_PERICENTER":"108.4003","LAUNCH_DATE":"2021-03-14","MEAN_MOTION":"15.06397194","NORAD_CAT_ID":"47914","REF_FRAME":"TEME","OBJECT_NAME":"STARLINK-2375","EPHEMERIS_TYPE":"0","DECAY_DATE":null,"TIME_SYSTEM":"UTC","ECCENTRICITY":"0.00013940","MEAN_MOTION_DOT":"0.00001338","MEAN_MOTION_DDOT":"0.0000000000000","MEAN_ANOMALY":"251.7137","REV_AT_EPOCH":"3127","CENTER_NAME":"EARTH","FILE":"3131463","ELEMENT_SET_NO":"999","OBJECT_ID":"2021-021BG","PERIOD":"95.592","COUNTRY_CODE":"US","RCS_SIZE":"LARGE","INCLINATION":"53.0582","APOAPSIS":"548.188","PERIAPSIS":"546.257","CLASSIFICATION_TYPE":"U","RA_OF_ASC_NODE":"12.1192","TLE_LINE1":"1 47914U 21021BG  21270.66949495  .00001338  00000-0  10871-3 0  9990","OBJECT_TYPE":"PAYLOAD","SITE":"AFETR","GP_ID":"185668275"},{"LAUNCH_DATE":"2021-03-14","ARG_OF_PERICENTER":"123.6578","MEAN_ELEMENT_THEORY":"SGP4","TLE_LINE2":"2 47915  53.0568   7.0883 0001103 123.6578 236.4516 15.06388589 31350","BSTAR":"0.00002642600000","EPOCH":"2021-09-27T16:02:06.088128","SEMIMAJOR_AXIS":"6925.384","DECAY_DATE":null,"TIME_SYSTEM":"UTC","ECCENTRICITY":"0.00011030","EPHEMERIS_TYPE":"0","OBJECT_NAME":"STARLINK-2376","MEAN_MOTION_DOT":"0.00000112","REF_FRAME":"TEME","NORAD_CAT_ID":"47915","MEAN_MOTION":"15.06388589","PERIOD":"95.593","COUNTRY_CODE":"US","OBJECT_ID":"2021-021BH","ELEMENT_SET_NO":"999","INCLINATION":"53.0568","RCS_SIZE":"LARGE","REV_AT_EPOCH":"3135","MEAN_ANOMALY":"236.4516","MEAN_MOTION_DDOT":"0.0000000000000","FILE":"3131463","CENTER_NAME":"EARTH","GP_ID":"185669021","CLASSIFICATION_TYPE":"U","PERIAPSIS":"546.485","APOAPSIS":"548.012","SITE":"AFETR","OBJECT_TYPE":"PAYLOAD","TLE_LINE1":"1 47915U 21021BH  21270.66812602  .00000112  00000-0  26426-4 0  9993","RA_OF_ASC_NODE":"7.0883"},{"ARG_OF_PERICENTER":"105.4049","LAUNCH_DATE":"2021-03-14","MEAN_ELEMENT_THEORY":"SGP4","TLE_LINE2":"2 47916  53.0546 352.2474 0001224 105.4049 254.7075 15.06392835 31535","BSTAR":"-0.00003181000000","SEMIMAJOR_AXIS":"6925.371","EPOCH":"2021-09-27T15:24:15.986880","OBJECT_NAME":"STARLINK-2378","TIME_SYSTEM":"UTC","DECAY_DATE":null,"ECCENTRICITY":"0.00012240","EPHEMERIS_TYPE":"0","MEAN_MOTION_DOT":"-0.00000755","REF_FRAME":"TEME","NORAD_CAT_ID":"47916","MEAN_MOTION":"15.06392835","OBJECT_ID":"2021-021BJ","ELEMENT_SET_NO":"999","COUNTRY_CODE":"US","PERIOD":"95.593","RCS_SIZE":"LARGE","INCLINATION":"53.0546","MEAN_MOTION_DDOT":"0.0000000000000","MEAN_ANOMALY":"254.7075","REV_AT_EPOCH":"3153","CENTER_NAME":"EARTH","FILE":"3131463","GP_ID":"185667773","PERIAPSIS":"546.388","CLASSIFICATION_TYPE":"U","APOAPSIS":"548.083","TLE_LINE1":"1 47916U 21021BJ  21270.64185170 -.00000755  00000-0 -31810-4 0  9993","RA_OF_ASC_NODE":"352.2474","OBJECT_TYPE":"PAYLOAD","SITE":"AFETR"},{"PERIAPSIS":"546.403","CLASSIFICATION_TYPE":"U","APOAPSIS":"548.037","TLE_LINE1":"1 47917U 21021BK  21270.64830806 -.00000767  00000-0 -32603-4 0  9991","RA_OF_ASC_NODE":"2.2198","OBJECT_TYPE":"PAYLOAD","SITE":"AFETR","GP_ID":"185667524","MEAN_MOTION_DDOT":"0.0000000000000","MEAN_ANOMALY":"261.1562","REV_AT_EPOCH":"3138","CENTER_NAME":"EARTH","FILE":"3131463","OBJECT_ID":"2021-021BK","ELEMENT_SET_NO":"999","COUNTRY_CODE":"US","PERIOD":"95.592","RCS_SIZE":"LARGE","INCLINATION":"53.0588","REF_FRAME":"TEME","NORAD_CAT_ID":"47917","MEAN_MOTION":"15.06397846","OBJECT_NAME":"STARLINK-2397","TIME_SYSTEM":"UTC","DECAY_DATE":null,"ECCENTRICITY":"0.00011800","EPHEMERIS_TYPE":"0","MEAN_MOTION_DOT":"-0.00000767","TLE_LINE2":"2 47917  53.0588   2.2198 0001180  98.9561 261.1562 15.06397846 31386","MEAN_ELEMENT_THEORY":"SGP4","BSTAR":"-0.00003260300000","SEMIMAJOR_AXIS":"6925.355","EPOCH":"2021-09-27T15:33:33.816384","ARG_OF_PERICENTER":"98.9561","LAUNCH_DATE":"2021-03-14"},{"EPOCH":"2021-09-27T15:44:09.709152","SEMIMAJOR_AXIS":"6925.343","BSTAR":"0.00010969000000","TLE_LINE2":"2 47918  53.0575   2.1822 0001033 105.9673 254.1430 15.06401813 31416","MEAN_ELEMENT_THEORY":"SGP4","LAUNCH_DATE":"2021-03-14","ARG_OF_PERICENTER":"105.9673","NORAD_CAT_ID":"47918","MEAN_MOTION":"15.06401813","REF_FRAME":"TEME","MEAN_MOTION_DOT":"0.00001353","EPHEMERIS_TYPE":"0","DECAY_DATE":null,"TIME_SYSTEM":"UTC","ECCENTRICITY":"0.00010330","OBJECT_NAME":"STARLINK-2398","FILE":"3131463","CENTER_NAME":"EARTH","REV_AT_EPOCH":"3141","MEAN_ANOMALY":"254.1430","MEAN_MOTION_DDOT":"0.0000000000000","INCLINATION":"53.0575","RCS_SIZE":"LARGE","COUNTRY_CODE":"US","PERIOD":"95.592","ELEMENT_SET_NO":"999","OBJECT_ID":"2021-021BL","SITE":"AFETR","RA_OF_ASC_NODE":"2.1822","TLE_LINE1":"1 47918U 21021BL  21270.65566793  .00001353  00000-0  10969-3 0  9994","OBJECT_TYPE":"PAYLOAD","APOAPSIS":"547.923","CLASSIFICATION_TYPE":"U","PERIAPSIS":"546.493","GP_ID":"185668775"},{"MEAN_MOTION_DDOT":"0.0000000000000","MEAN_ANOMALY":"245.5616","REV_AT_EPOCH":"3127","CENTER_NAME":"EARTH","FILE":"3131463","OBJECT_ID":"2021-021BM","ELEMENT_SET_NO":"999","PERIOD":"95.592","COUNTRY_CODE":"US","RCS_SIZE":"LARGE","INCLINATION":"53.0562","APOAPSIS":"548.081","PERIAPSIS":"546.327","CLASSIFICATION_TYPE":"U","RA_OF_ASC_NODE":"11.6553","TLE_LINE1":"1 47919U 21021BM  21270.77269020  .00002377  00000-0  17838-3 0  9990","OBJECT_TYPE":"PAYLOAD","SITE":"AFETR","GP_ID":"185668522","MEAN_ELEMENT_THEORY":"SGP4","TLE_LINE2":"2 47919  53.0562  11.6553 0001266 114.5505 245.5616 15.06403184 31274","BSTAR":"0.00017838000000","SEMIMAJOR_AXIS":"6925.339","EPOCH":"2021-09-27T18:32:40.433280","ARG_OF_PERICENTER":"114.5505","LAUNCH_DATE":"2021-03-14","NORAD_CAT_ID":"47919","MEAN_MOTION":"15.06403184","REF_FRAME":"TEME","OBJECT_NAME":"STARLINK-2405","EPHEMERIS_TYPE":"0","DECAY_DATE":null,"ECCENTRICITY":"0.00012660","TIME_SYSTEM":"UTC","MEAN_MOTION_DOT":"0.00002377"},{"INCLINATION":"53.0557","RCS_SIZE":"LARGE","PERIOD":"95.592","COUNTRY_CODE":"US","ELEMENT_SET_NO":"999","OBJECT_ID":"2021-024A","FILE":"3131463","CENTER_NAME":"EARTH","REV_AT_EPOCH":"2994","MEAN_ANOMALY":"260.0238","MEAN_MOTION_DDOT":"0.0000000000000","GP_ID":"185667531","SITE":"AFETR","TLE_LINE1":"1 47977U 21024A   21270.78145646  .00001390  00000-0  11221-3 0  9999","RA_OF_ASC_NODE":"56.6130","OBJECT_TYPE":"PAYLOAD","PERIAPSIS":"546.019","CLASSIFICATION_TYPE":"U","APOAPSIS":"548.422","LAUNCH_DATE":"2021-03-24","ARG_OF_PERICENTER":"100.0947","EPOCH":"2021-09-27T18:45:17.838144","SEMIMAJOR_AXIS":"6925.355","TLE_LINE2":"2 47977  53.0557  56.6130 0001735 100.0947 260.0238 15.06397774 29943","MEAN_ELEMENT_THEORY":"SGP4","BSTAR":"0.00011221000000","MEAN_MOTION_DOT":"0.00001390","DECAY_DATE":null,"ECCENTRICITY":"0.00017350","TIME_SYSTEM":"UTC","EPHEMERIS_TYPE":"0","OBJECT_NAME":"STARLINK-2087","REF_FRAME":"TEME","MEAN_MOTION":"15.06397774","NORAD_CAT_ID":"47977"},{"REF_FRAME":"TEME","MEAN_MOTION":"15.06392909","NORAD_CAT_ID":"47978","OBJECT_NAME":"STARLINK-1647","DECAY_DATE":null,"ECCENTRICITY":"0.00015250","TIME_SYSTEM":"UTC","EPHEMERIS_TYPE":"0","MEAN_MOTION_DOT":"-0.00000643","TLE_LINE2":"2 47978  53.0559  66.5384 0001525  96.6579 263.4584 15.06392909 29806","MEAN_ELEMENT_THEORY":"SGP4","BSTAR":"-0.00002430300000","SEMIMAJOR_AXIS":"6925.370","EPOCH":"2021-09-27T19:15:49.316832","ARG_OF_PERICENTER":"96.6579","LAUNCH_DATE":"2021-03-24","PERIAPSIS":"546.179","CLASSIFICATION_TYPE":"U","APOAPSIS":"548.291","TLE_LINE1":"1 47978U 21024B   21270.80265413 -.00000643  00000-0 -24303-4 0  9996","RA_OF_ASC_NODE":"66.5384","OBJECT_TYPE":"PAYLOAD","SITE":"AFETR","GP_ID":"185668782","MEAN_MOTION_DDOT":"0.0000000000000","REV_AT_EPOCH":"2980","MEAN_ANOMALY":"263.4584","CENTER_NAME":"EARTH","FILE":"3131463","ELEMENT_SET_NO":"999","OBJECT_ID":"2021-024B","COUNTRY_CODE":"US","PERIOD":"95.593","RCS_SIZE":"LARGE","INCLINATION":"53.0559"}];
